HULIANWANG DIGUI-144    
1 67442U 26007H   26036.57775104  .00000013  00000+0  15324-3 0  9992
2 67442  50.0150 203.4674 0000882  15.4690 344.6230 13.77880412  3191
HULIANWANG DIGUI-145    
1 67443U 26007J   26036.57427844  .00000037  00000+0  17668-3 0  9997
2 67443  50.0150 203.4478 0000885 343.2510  16.8354 13.78060715  3192
CZ-8A R/B               
1 67444U 26007K   26036.94725965 -.00000083  00000+0  36590-4 0  9992
2 67444  50.0084 198.0383 0092208 162.9744 197.4293 14.13551492  3294
STARLINK-36542          
1 67445U 26008A   26036.91670139 -.02036620  00000+0 -31025-1 0  9997
2 67445  43.0001  26.6654 0000955 260.2338 327.9184 15.56762675  4680
STARLINK-36539          
1 67446U 26008B   26036.91670139 -.02070256  00000+0 -29366-1 0  9996
2 67446  43.0001  26.5952 0001116 254.8612   1.6502 15.58691942  4685
STARLINK-36440          
1 67447U 26008C   26035.39396356 -.00618888  00000+0 -44540-2 0  9993
2 67447  42.9995  35.5635 0000730 302.0276  58.0522 15.74395349  4450
STARLINK-36423          
1 67448U 26008D   26036.91670139 -.02025287  00000+0 -34096-1 0  9998
2 67448  43.0011  26.7563 0000919 271.4138 280.2576 15.54063487  4685
STARLINK-36519          
1 67449U 26008E   26036.91670139 -.02056371  00000+0 -23847-1 0  9999
2 67449  42.9996  26.4291 0001382 258.9036  64.4500 15.64354020  4689
STARLINK-36525          
1 67450U 26008F   26036.91670139 -.02028965  00000+0 -31145-1 0  9999
2 67450  43.0003  26.6481 0000756 259.3568 335.3309 15.56549665  4683
STARLINK-36511          
1 67451U 26008G   26036.91670139 -.02036613  00000+0 -33972-1 0  9999
2 67451  43.0001  26.7296 0000843 257.7281 304.0636 15.54331856  4683
STARLINK-36524          
1 67452U 26008H   26036.91670139 -.02045295  00000+0 -30465-1 0  9990
2 67452  43.0001  26.6091 0000955 260.5847 349.6261 15.57370457  4682
STARLINK-36518          
1 67453U 26008J   26036.91670139 -.02048798  00000+0 -28049-1 0  9997
2 67453  42.9997  26.1516 0001082 274.7684 155.8637 15.60137789  4711
