CCSDS_OMM_VERS = 2.0
CREATION_DATE  = 
ORIGINATOR     = 

OBJECT_NAME    = HULIANWANG DIGUI-144
OBJECT_ID      = 2026-007H
CENTER_NAME    = EARTH
REF_FRAME      = TEME
TIME_SYSTEM    = UTC
MEAN_ELEMENT_THEORY = SGP/SGP4

EPOCH          = 2026-02-05T13:51:57.689856
MEAN_MOTION    = 13.77880412
ECCENTRICITY   = .00008825
INCLINATION    = 50.0150
RA_OF_ASC_NODE = 203.4674
ARG_OF_PERICENTER = 15.4690
MEAN_ANOMALY   = 344.6230

EPHEMERIS_TYPE = 0
CLASSIFICATION_TYPE = U
NORAD_CAT_ID   = 67442
ELEMENT_SET_NO = 999
REV_AT_EPOCH   = 319
BSTAR          = .15323897E-3
MEAN_MOTION_DOT = .13E-6
MEAN_MOTION_DDOT = 0

CCSDS_OMM_VERS = 2.0
CREATION_DATE  = 
ORIGINATOR     = 

OBJECT_NAME    = HULIANWANG DIGUI-145
OBJECT_ID      = 2026-007J
CENTER_NAME    = EARTH
REF_FRAME      = TEME
TIME_SYSTEM    = UTC
MEAN_ELEMENT_THEORY = SGP/SGP4

EPOCH          = 2026-02-05T13:46:57.657216
MEAN_MOTION    = 13.78060715
ECCENTRICITY   = .00008853
INCLINATION    = 50.0150
RA_OF_ASC_NODE = 203.4478
ARG_OF_PERICENTER = 343.2510
MEAN_ANOMALY   = 16.8354

EPHEMERIS_TYPE = 0
CLASSIFICATION_TYPE = U
NORAD_CAT_ID   = 67443
ELEMENT_SET_NO = 999
REV_AT_EPOCH   = 319
BSTAR          = .17667595E-3
MEAN_MOTION_DOT = .37E-6
MEAN_MOTION_DDOT = 0

CCSDS_OMM_VERS = 2.0
CREATION_DATE  = 
ORIGINATOR     = 

OBJECT_NAME    = CZ-8A R/B
OBJECT_ID      = 2026-007K
CENTER_NAME    = EARTH
REF_FRAME      = TEME
TIME_SYSTEM    = UTC
MEAN_ELEMENT_THEORY = SGP/SGP4

EPOCH          = 2026-02-05T22:44:03.233760
MEAN_MOTION    = 14.13551492
ECCENTRICITY   = .00922084
INCLINATION    = 50.0084
RA_OF_ASC_NODE = 198.0383
ARG_OF_PERICENTER = 162.9744
MEAN_ANOMALY   = 197.4293

EPHEMERIS_TYPE = 0
CLASSIFICATION_TYPE = U
NORAD_CAT_ID   = 67444
ELEMENT_SET_NO = 999
REV_AT_EPOCH   = 329
BSTAR          = .36590204E-4
MEAN_MOTION_DOT = -.83E-6
MEAN_MOTION_DDOT = 0

CCSDS_OMM_VERS = 2.0
CREATION_DATE  = 
ORIGINATOR     = 

OBJECT_NAME    = STARLINK-36542
OBJECT_ID      = 2026-008A
CENTER_NAME    = EARTH
REF_FRAME      = TEME
TIME_SYSTEM    = UTC
MEAN_ELEMENT_THEORY = SGP/SGP4

EPOCH          = 2026-02-05T22:00:03.000096
MEAN_MOTION    = 15.56762675
ECCENTRICITY   = .00009559
INCLINATION    = 43.0001
RA_OF_ASC_NODE = 26.6654
ARG_OF_PERICENTER = 260.2338
MEAN_ANOMALY   = 327.9184

EPHEMERIS_TYPE = 0
CLASSIFICATION_TYPE = U
NORAD_CAT_ID   = 67445
ELEMENT_SET_NO = 999
REV_AT_EPOCH   = 468
BSTAR          = -.310249E-1
MEAN_MOTION_DOT = -.203662E-1
MEAN_MOTION_DDOT = 0

CCSDS_OMM_VERS = 2.0
CREATION_DATE  = 
ORIGINATOR     = 

OBJECT_NAME    = STARLINK-36539
OBJECT_ID      = 2026-008B
CENTER_NAME    = EARTH
REF_FRAME      = TEME
TIME_SYSTEM    = UTC
MEAN_ELEMENT_THEORY = SGP/SGP4

EPOCH          = 2026-02-05T22:00:03.000096
MEAN_MOTION    = 15.58691942
ECCENTRICITY   = .00011163
INCLINATION    = 43.0001
RA_OF_ASC_NODE = 26.5952
ARG_OF_PERICENTER = 254.8612
MEAN_ANOMALY   = 1.6502

EPHEMERIS_TYPE = 0
CLASSIFICATION_TYPE = U
NORAD_CAT_ID   = 67446
ELEMENT_SET_NO = 999
REV_AT_EPOCH   = 468
BSTAR          = -.2936566E-1
MEAN_MOTION_DOT = -.2070256E-1
MEAN_MOTION_DDOT = 0

CCSDS_OMM_VERS = 2.0
CREATION_DATE  = 
ORIGINATOR     = 

OBJECT_NAME    = STARLINK-36440
OBJECT_ID      = 2026-008C
CENTER_NAME    = EARTH
REF_FRAME      = TEME
TIME_SYSTEM    = UTC
MEAN_ELEMENT_THEORY = SGP/SGP4

EPOCH          = 2026-02-04T09:27:18.451584
MEAN_MOTION    = 15.74395349
ECCENTRICITY   = .00007308
INCLINATION    = 42.9995
RA_OF_ASC_NODE = 35.5635
ARG_OF_PERICENTER = 302.0276
MEAN_ANOMALY   = 58.0522

EPHEMERIS_TYPE = 0
CLASSIFICATION_TYPE = U
NORAD_CAT_ID   = 67447
ELEMENT_SET_NO = 999
REV_AT_EPOCH   = 445
BSTAR          = -.44540379E-2
MEAN_MOTION_DOT = -.618888E-2
MEAN_MOTION_DDOT = 0

CCSDS_OMM_VERS = 2.0
CREATION_DATE  = 
ORIGINATOR     = 

OBJECT_NAME    = STARLINK-36423
OBJECT_ID      = 2026-008D
CENTER_NAME    = EARTH
REF_FRAME      = TEME
TIME_SYSTEM    = UTC
MEAN_ELEMENT_THEORY = SGP/SGP4

EPOCH          = 2026-02-05T22:00:03.000096
MEAN_MOTION    = 15.54063487
ECCENTRICITY   = .00009194
INCLINATION    = 43.0011
RA_OF_ASC_NODE = 26.7563
ARG_OF_PERICENTER = 271.4138
MEAN_ANOMALY   = 280.2576

EPHEMERIS_TYPE = 0
CLASSIFICATION_TYPE = U
NORAD_CAT_ID   = 67448
ELEMENT_SET_NO = 999
REV_AT_EPOCH   = 468
BSTAR          = -.34096485E-1
MEAN_MOTION_DOT = -.2025287E-1
MEAN_MOTION_DDOT = 0

CCSDS_OMM_VERS = 2.0
CREATION_DATE  = 
ORIGINATOR     = 

OBJECT_NAME    = STARLINK-36519
OBJECT_ID      = 2026-008E
CENTER_NAME    = EARTH
REF_FRAME      = TEME
TIME_SYSTEM    = UTC
MEAN_ELEMENT_THEORY = SGP/SGP4

EPOCH          = 2026-02-05T22:00:03.000096
MEAN_MOTION    = 15.64354020
ECCENTRICITY   = .00013823
INCLINATION    = 42.9996
RA_OF_ASC_NODE = 26.4291
ARG_OF_PERICENTER = 258.9036
MEAN_ANOMALY   = 64.4500

EPHEMERIS_TYPE = 0
CLASSIFICATION_TYPE = U
NORAD_CAT_ID   = 67449
ELEMENT_SET_NO = 999
REV_AT_EPOCH   = 468
BSTAR          = -.23846546E-1
MEAN_MOTION_DOT = -.2056371E-1
MEAN_MOTION_DDOT = 0

CCSDS_OMM_VERS = 2.0
CREATION_DATE  = 
ORIGINATOR     = 

OBJECT_NAME    = STARLINK-36525
OBJECT_ID      = 2026-008F
CENTER_NAME    = EARTH
REF_FRAME      = TEME
TIME_SYSTEM    = UTC
MEAN_ELEMENT_THEORY = SGP/SGP4

EPOCH          = 2026-02-05T22:00:03.000096
MEAN_MOTION    = 15.56549665
ECCENTRICITY   = .00007569
INCLINATION    = 43.0003
RA_OF_ASC_NODE = 26.6481
ARG_OF_PERICENTER = 259.3568
MEAN_ANOMALY   = 335.3309

EPHEMERIS_TYPE = 0
CLASSIFICATION_TYPE = U
NORAD_CAT_ID   = 67450
ELEMENT_SET_NO = 999
REV_AT_EPOCH   = 468
BSTAR          = -.31145208E-1
MEAN_MOTION_DOT = -.2028965E-1
MEAN_MOTION_DDOT = 0

CCSDS_OMM_VERS = 2.0
CREATION_DATE  = 
ORIGINATOR     = 

OBJECT_NAME    = STARLINK-36511
OBJECT_ID      = 2026-008G
CENTER_NAME    = EARTH
REF_FRAME      = TEME
TIME_SYSTEM    = UTC
MEAN_ELEMENT_THEORY = SGP/SGP4

EPOCH          = 2026-02-05T22:00:03.000096
MEAN_MOTION    = 15.54331856
ECCENTRICITY   = .00008435
INCLINATION    = 43.0001
RA_OF_ASC_NODE = 26.7296
ARG_OF_PERICENTER = 257.7281
MEAN_ANOMALY   = 304.0636

EPHEMERIS_TYPE = 0
CLASSIFICATION_TYPE = U
NORAD_CAT_ID   = 67451
ELEMENT_SET_NO = 999
REV_AT_EPOCH   = 468
BSTAR          = -.33972442E-1
MEAN_MOTION_DOT = -.2036613E-1
MEAN_MOTION_DDOT = 0

CCSDS_OMM_VERS = 2.0
CREATION_DATE  = 
ORIGINATOR     = 

OBJECT_NAME    = STARLINK-36524
OBJECT_ID      = 2026-008H
CENTER_NAME    = EARTH
REF_FRAME      = TEME
TIME_SYSTEM    = UTC
MEAN_ELEMENT_THEORY = SGP/SGP4

EPOCH          = 2026-02-05T22:00:03.000096
MEAN_MOTION    = 15.57370457
ECCENTRICITY   = .00009558
INCLINATION    = 43.0001
RA_OF_ASC_NODE = 26.6091
ARG_OF_PERICENTER = 260.5847
MEAN_ANOMALY   = 349.6261

EPHEMERIS_TYPE = 0
CLASSIFICATION_TYPE = U
NORAD_CAT_ID   = 67452
ELEMENT_SET_NO = 999
REV_AT_EPOCH   = 468
BSTAR          = -.30465428E-1
MEAN_MOTION_DOT = -.2045295E-1
MEAN_MOTION_DDOT = 0

CCSDS_OMM_VERS = 2.0
CREATION_DATE  = 
ORIGINATOR     = 

OBJECT_NAME    = STARLINK-36518
OBJECT_ID      = 2026-008J
CENTER_NAME    = EARTH
REF_FRAME      = TEME
TIME_SYSTEM    = UTC
MEAN_ELEMENT_THEORY = SGP/SGP4

EPOCH          = 2026-02-05T22:00:03.000096
MEAN_MOTION    = 15.60137789
ECCENTRICITY   = .00010829
INCLINATION    = 42.9997
RA_OF_ASC_NODE = 26.1516
ARG_OF_PERICENTER = 274.7684
MEAN_ANOMALY   = 155.8637

EPHEMERIS_TYPE = 0
CLASSIFICATION_TYPE = U
NORAD_CAT_ID   = 67453
ELEMENT_SET_NO = 999
REV_AT_EPOCH   = 471
BSTAR          = -.28049189E-1
MEAN_MOTION_DOT = -.2048798E-1
MEAN_MOTION_DDOT = 0

